CCSDS_OMM_VERS = 2.0
CREATION_DATE  = 
ORIGINATOR     = 

OBJECT_NAME    = SL-14 R/B
OBJECT_ID      = 1986-046B
CENTER_NAME    = EARTH
REF_FRAME      = TEME
TIME_SYSTEM    = UTC
MEAN_ELEMENT_THEORY = SGP/SGP4

EPOCH          = 2026-04-03T06:10:07.576032
MEAN_MOTION    = 14.85617016
ECCENTRICITY   = .00239877
INCLINATION    = 82.4814
RA_OF_ASC_NODE = 56.9639
ARG_OF_PERICENTER = 143.6606
MEAN_ANOMALY   = 216.6245

EPHEMERIS_TYPE = 0
CLASSIFICATION_TYPE = U
NORAD_CAT_ID   = 16792
ELEMENT_SET_NO = 999
REV_AT_EPOCH   = 13005
BSTAR          = .94769932E-4
MEAN_MOTION_DOT = .849E-5
MEAN_MOTION_DDOT = 0

CCSDS_OMM_VERS = 2.0
CREATION_DATE  = 
ORIGINATOR     = 

OBJECT_NAME    = SL-14 R/B
OBJECT_ID      = 1986-055B
CENTER_NAME    = EARTH
REF_FRAME      = TEME
TIME_SYSTEM    = UTC
MEAN_ELEMENT_THEORY = SGP/SGP4

EPOCH          = 2026-04-03T07:25:36.754752
MEAN_MOTION    = 14.85666789
ECCENTRICITY   = .00174004
INCLINATION    = 82.5169
RA_OF_ASC_NODE = 103.5264
ARG_OF_PERICENTER = 249.0509
MEAN_ANOMALY   = 120.9023

EPHEMERIS_TYPE = 0
CLASSIFICATION_TYPE = U
NORAD_CAT_ID   = 16882
ELEMENT_SET_NO = 999
REV_AT_EPOCH   = 12302
BSTAR          = .8590538E-4
MEAN_MOTION_DOT = .77E-5
MEAN_MOTION_DDOT = 0

CCSDS_OMM_VERS = 2.0
CREATION_DATE  = 
ORIGINATOR     = 

OBJECT_NAME    = AJISAI (EGS)
OBJECT_ID      = 1986-061A
CENTER_NAME    = EARTH
REF_FRAME      = TEME
TIME_SYSTEM    = UTC
MEAN_ELEMENT_THEORY = SGP/SGP4

EPOCH          = 2026-04-03T07:08:24.831168
MEAN_MOTION    = 12.44515659
ECCENTRICITY   = .00113575
INCLINATION    = 50.0120
RA_OF_ASC_NODE = 17.6785
ARG_OF_PERICENTER = 350.3733
MEAN_ANOMALY   = 115.2435

EPHEMERIS_TYPE = 0
CLASSIFICATION_TYPE = U
NORAD_CAT_ID   = 16908
ELEMENT_SET_NO = 999
REV_AT_EPOCH   = 47106
BSTAR          = .31970445E-4
MEAN_MOTION_DOT = -.93E-6
MEAN_MOTION_DDOT = 0

CCSDS_OMM_VERS = 2.0
CREATION_DATE  = 
ORIGINATOR     = 

OBJECT_NAME    = SL-14 R/B
OBJECT_ID      = 1987-024B
CENTER_NAME    = EARTH
REF_FRAME      = TEME
TIME_SYSTEM    = UTC
MEAN_ELEMENT_THEORY = SGP/SGP4

EPOCH          = 2026-04-03T05:08:22.645536
MEAN_MOTION    = 14.86158150
ECCENTRICITY   = .00182973
INCLINATION    = 82.5262
RA_OF_ASC_NODE = 69.7069
ARG_OF_PERICENTER = 174.5915
MEAN_ANOMALY   = 185.5503

EPHEMERIS_TYPE = 0
CLASSIFICATION_TYPE = U
NORAD_CAT_ID   = 17567
ELEMENT_SET_NO = 999
REV_AT_EPOCH   = 9177
BSTAR          = .9167031E-4
MEAN_MOTION_DOT = .83E-5
MEAN_MOTION_DDOT = 0

CCSDS_OMM_VERS = 2.0
CREATION_DATE  = 
ORIGINATOR     = 

OBJECT_NAME    = COSMOS 1833
OBJECT_ID      = 1987-027A
CENTER_NAME    = EARTH
REF_FRAME      = TEME
TIME_SYSTEM    = UTC
MEAN_ELEMENT_THEORY = SGP/SGP4

EPOCH          = 2026-04-03T05:05:15.986976
MEAN_MOTION    = 14.13044847
ECCENTRICITY   = .00230216
INCLINATION    = 70.9164
RA_OF_ASC_NODE = 274.4745
ARG_OF_PERICENTER = 177.9907
MEAN_ANOMALY   = 182.1311

EPHEMERIS_TYPE = 0
CLASSIFICATION_TYPE = U
NORAD_CAT_ID   = 17589
ELEMENT_SET_NO = 999
REV_AT_EPOCH   = 1378
BSTAR          = -.13807508E-3
MEAN_MOTION_DOT = -.306E-5
MEAN_MOTION_DDOT = 0

CCSDS_OMM_VERS = 2.0
CREATION_DATE  = 
ORIGINATOR     = 

OBJECT_NAME    = SL-16 R/B
OBJECT_ID      = 1987-027B
CENTER_NAME    = EARTH
REF_FRAME      = TEME
TIME_SYSTEM    = UTC
MEAN_ELEMENT_THEORY = SGP/SGP4

EPOCH          = 2026-04-03T02:44:53.213856
MEAN_MOTION    = 14.17167843
ECCENTRICITY   = .00028825
INCLINATION    = 71.0023
RA_OF_ASC_NODE = 225.0219
ARG_OF_PERICENTER = 81.0448
MEAN_ANOMALY   = 279.1002

EPHEMERIS_TYPE = 0
CLASSIFICATION_TYPE = U
NORAD_CAT_ID   = 17590
ELEMENT_SET_NO = 999
REV_AT_EPOCH   = 1880
BSTAR          = .16426852E-3
MEAN_MOTION_DOT = .283E-5
MEAN_MOTION_DDOT = 0

CCSDS_OMM_VERS = 2.0
CREATION_DATE  = 
ORIGINATOR     = 

OBJECT_NAME    = SL-14 R/B
OBJECT_ID      = 1987-038B
CENTER_NAME    = EARTH
REF_FRAME      = TEME
TIME_SYSTEM    = UTC
MEAN_ELEMENT_THEORY = SGP/SGP4

EPOCH          = 2026-04-03T05:19:15.080448
MEAN_MOTION    = 14.85394239
ECCENTRICITY   = .00207581
INCLINATION    = 82.4977
RA_OF_ASC_NODE = 273.6901
ARG_OF_PERICENTER = 84.1137
MEAN_ANOMALY   = 276.2444

EPHEMERIS_TYPE = 0
CLASSIFICATION_TYPE = U
NORAD_CAT_ID   = 17912
ELEMENT_SET_NO = 999
REV_AT_EPOCH   = 8287
BSTAR          = .91771697E-4
MEAN_MOTION_DOT = .817E-5
MEAN_MOTION_DDOT = 0

CCSDS_OMM_VERS = 2.0
CREATION_DATE  = 
ORIGINATOR     = 

OBJECT_NAME    = COSMOS 1844
OBJECT_ID      = 1987-041A
CENTER_NAME    = EARTH
REF_FRAME      = TEME
TIME_SYSTEM    = UTC
MEAN_ELEMENT_THEORY = SGP/SGP4

EPOCH          = 2026-04-03T03:36:26.791776
MEAN_MOTION    = 14.14561204
ECCENTRICITY   = .0031422
INCLINATION    = 70.9016
RA_OF_ASC_NODE = 342.5841
ARG_OF_PERICENTER = 341.9957
MEAN_ANOMALY   = 18.0049

EPHEMERIS_TYPE = 0
CLASSIFICATION_TYPE = U
NORAD_CAT_ID   = 17973
ELEMENT_SET_NO = 999
REV_AT_EPOCH   = 704
BSTAR          = .22897085E-3
MEAN_MOTION_DOT = .393E-5
MEAN_MOTION_DDOT = 0

CCSDS_OMM_VERS = 2.0
CREATION_DATE  = 
ORIGINATOR     = 

OBJECT_NAME    = SL-14 R/B
OBJECT_ID      = 1987-055B
CENTER_NAME    = EARTH
REF_FRAME      = TEME
TIME_SYSTEM    = UTC
MEAN_ELEMENT_THEORY = SGP/SGP4

EPOCH          = 2026-04-03T03:02:42.189216
MEAN_MOTION    = 14.85654580
ECCENTRICITY   = .00192449
INCLINATION    = 82.4997
RA_OF_ASC_NODE = 326.0021
ARG_OF_PERICENTER = 294.7926
MEAN_ANOMALY   = 65.1288

EPHEMERIS_TYPE = 0
CLASSIFICATION_TYPE = U
NORAD_CAT_ID   = 18153
ELEMENT_SET_NO = 999
REV_AT_EPOCH   = 7356
BSTAR          = .70840646E-4
MEAN_MOTION_DOT = .639E-5
MEAN_MOTION_DDOT = 0

CCSDS_OMM_VERS = 2.0
CREATION_DATE  = 
ORIGINATOR     = 

OBJECT_NAME    = COSMOS 1867
OBJECT_ID      = 1987-060A
CENTER_NAME    = EARTH
REF_FRAME      = TEME
TIME_SYSTEM    = UTC
MEAN_ELEMENT_THEORY = SGP/SGP4

EPOCH          = 2026-04-03T02:27:24.363648
MEAN_MOTION    = 14.31507150
ECCENTRICITY   = .0014934
INCLINATION    = 65.0100
RA_OF_ASC_NODE = 238.3341
ARG_OF_PERICENTER = 280.0267
MEAN_ANOMALY   = 79.9132

EPHEMERIS_TYPE = 0
CLASSIFICATION_TYPE = U
NORAD_CAT_ID   = 18187
ELEMENT_SET_NO = 999
REV_AT_EPOCH   = 2343
BSTAR          = .43867903E-4
MEAN_MOTION_DOT = .17E-6
MEAN_MOTION_DDOT = 0

CCSDS_OMM_VERS = 2.0
CREATION_DATE  = 
ORIGINATOR     = 

OBJECT_NAME    = SL-14 R/B
OBJECT_ID      = 1988-001B
CENTER_NAME    = EARTH
REF_FRAME      = TEME
TIME_SYSTEM    = UTC
MEAN_ELEMENT_THEORY = SGP/SGP4

EPOCH          = 2026-04-03T06:12:27.531072
MEAN_MOTION    = 14.85556212
ECCENTRICITY   = .00187829
INCLINATION    = 82.5157
RA_OF_ASC_NODE = 172.2598
ARG_OF_PERICENTER = 153.0076
MEAN_ANOMALY   = 207.2122

EPHEMERIS_TYPE = 0
CLASSIFICATION_TYPE = U
NORAD_CAT_ID   = 18749
ELEMENT_SET_NO = 999
REV_AT_EPOCH   = 4567
BSTAR          = .83888842E-4
MEAN_MOTION_DOT = .751E-5
MEAN_MOTION_DDOT = 0

CCSDS_OMM_VERS = 2.0
CREATION_DATE  = 
ORIGINATOR     = 

OBJECT_NAME    = COSMOS 1933
OBJECT_ID      = 1988-020A
CENTER_NAME    = EARTH
REF_FRAME      = TEME
TIME_SYSTEM    = UTC
MEAN_ELEMENT_THEORY = SGP/SGP4

EPOCH          = 2026-04-03T05:51:33.368544
MEAN_MOTION    = 15.18232915
ECCENTRICITY   = .00055101
INCLINATION    = 82.5136
RA_OF_ASC_NODE = 226.6117
ARG_OF_PERICENTER = 110.4039
MEAN_ANOMALY   = 249.7787

EPHEMERIS_TYPE = 0
CLASSIFICATION_TYPE = U
NORAD_CAT_ID   = 18958
ELEMENT_SET_NO = 999
REV_AT_EPOCH   = 5395
BSTAR          = .41581551E-3
MEAN_MOTION_DOT = .8543E-4
MEAN_MOTION_DDOT = 0

